{"type":"FeatureCollection", "features": [
{"type":"Feature","geometry":{"type":"MultiPolygon","coordinates":[[[[95.802,2.93],[95.692,2.774],[95.839,2.622],[96.011,2.59],[96.161,2.512],[96.315,2.36],[96.443,2.328],[96.454,2.476],[96.239,2.619],[96.085,2.753],[95.904,2.824],[95.802,2.93]]],[[[98.155,4.289],[98.204,4.298],[98.225,4.288],[98.24,4.289],[98.253,4.29],[98.273,4.396],[98.155,4.51],[98.038,4.546],[97.963,4.665],[97.907,4.891],[97.84,4.907],[97.675,5.048],[97.5,5.249],[97.187,5.141],[97.103,5.225],[96.849,5.277],[96.626,5.211],[96.392,5.21],[96.262,5.266],[96.079,5.292],[95.934,5.406],[95.886,5.506],[95.611,5.628],[95.515,5.595],[95.434,5.657],[95.308,5.561],[95.194,5.527],[95.253,5.382],[95.242,5.222],[95.309,5.162],[95.367,4.948],[95.541,4.656],[95.738,4.509],[96.024,4.194],[96.195,4.103],[96.383,3.85],[96.541,3.731],[96.773,3.739],[97.002,3.547],[97.169,3.258],[97.255,3.225],[97.316,3.055],[97.431,2.932],[97.594,2.878],[97.65,2.676],[97.663,2.4],[97.778,2.24],[97.95,2.27],[98.127,2.17],[98.197,2.312],[98.082,2.511],[98.104,2.682],[98.055,2.819],[97.943,2.903],[97.981,3.079],[97.905,3.257],[97.949,3.39],[97.907,3.555],[97.801,3.723],[98.008,3.902],[98.07,4.247],[98.155,4.289]]]]},"properties":{"code":"11","name":"Aceh","level":"province"}},
{"type":"Feature","geometry":{"type":"Polygon","coordinates":[[[115.184,-8.062],[115.001,-8.176],[114.868,-8.196],[114.618,-8.123],[114.523,-8.134],[114.448,-8.219],[114.568,-8.388],[114.732,-8.396],[114.934,-8.477],[115.073,-8.596],[115.184,-8.744],[115.356,-8.581],[115.581,-8.517],[115.698,-8.358],[115.454,-8.162],[115.184,-8.062]]]},"properties":{"code":"51","name":"Bali","level":"province"}},
{"type":"Feature","geometry":{"type":"Polygon","coordinates":[[[106.688,-6.097],[106.587,-6.032],[106.411,-6.024],[106.257,-5.961],[106.117,-6.007],[105.983,-5.997],[105.882,-6.073],[105.825,-6.239],[105.823,-6.437],[105.772,-6.516],[105.65,-6.481],[105.611,-6.633],[105.443,-6.822],[105.538,-6.874],[105.992,-6.814],[106.238,-6.931],[106.395,-6.973],[106.467,-6.751],[106.401,-6.453],[106.425,-6.35],[106.594,-6.363],[106.769,-6.361],[106.78,-6.317],[106.779,-6.315],[106.774,-6.308],[106.746,-6.232],[106.745,-6.231],[106.718,-6.223],[106.688,-6.097]]]},"properties":{"code":"36","name":"Banten","level":"province"}},
{"type":"Feature","geometry":{"type":"MultiPolygon","coordinates":[[[[102.167,-5.291],[102.088,-5.357],[102.36,-5.505],[102.381,-5.386],[102.167,-5.291]]],[[[101.379,-2.355],[101.381,-2.34],[101.382,-2.335],[101.319,-2.301],[101.296,-2.29],[101.29,-2.291],[101.246,-2.328],[101.216,-2.355],[101.188,-2.372],[101.022,-2.478],[101.142,-2.629],[101.322,-2.738],[101.401,-2.925],[101.618,-3.241],[102.097,-3.564],[102.238,-3.684],[102.307,-3.891],[102.281,-3.964],[102.796,-4.354],[102.899,-4.488],[103.039,-4.535],[103.224,-4.656],[103.424,-4.871],[103.596,-4.913],[103.599,-4.904],[103.617,-4.889],[103.79,-4.779],[103.701,-4.723],[103.669,-4.729],[103.702,-4.664],[103.63,-4.558],[103.62,-4.533],[103.487,-4.578],[103.408,-4.504],[103.425,-4.401],[103.307,-4.258],[103.073,-4.262],[103.059,-4.195],[102.919,-4.095],[102.912,-3.97],[102.817,-3.979],[102.67,-3.826],[102.771,-3.708],[102.995,-3.525],[102.988,-3.368],[102.896,-3.376],[102.751,-3.309],[102.638,-3.338],[102.494,-3.268],[102.487,-3.11],[102.455,-3.073],[102.254,-3.036],[102.222,-2.928],[102.065,-2.768],[102.033,-2.758],[101.859,-2.731],[101.852,-2.722],[101.672,-2.53],[101.668,-2.529],[101.556,-2.449],[101.406,-2.357],[101.379,-2.355]]]]},"properties":{"code":"17","name":"Bengkulu","level":"province"}},
{"type":"Feature","geometry":{"type":"Polygon","coordinates":[[[110.651,-7.792],[110.586,-7.809],[110.564,-7.782],[110.563,-7.782],[110.558,-7.785],[110.531,-7.798],[110.494,-7.768],[110.492,-7.767],[110.491,-7.764],[110.445,-7.541],[110.272,-7.706],[110.261,-7.645],[110.141,-7.645],[110.13,-7.747],[110.063,-7.813],[110.032,-7.896],[110.006,-7.889],[110.344,-8.03],[110.436,-8.1],[110.708,-8.184],[110.799,-8.189],[110.833,-8.169],[110.814,-8.18],[110.815,-8.178],[110.829,-8.138],[110.804,-8.163],[110.789,-8.111],[110.756,-8.024],[110.786,-7.817],[110.671,-7.786],[110.658,-7.805],[110.651,-7.792]]]},"properties":{"code":"34","name":"Daerah Istimewa Yogyakarta","level":"province"}},
{"type":"Feature","geometry":{"type":"Polygon","coordinates":[[[106.718,-6.223],[106.745,-6.231],[106.746,-6.232],[106.774,-6.308],[106.779,-6.315],[106.809,-6.315],[106.836,-6.355],[106.841,-6.336],[106.885,-6.373],[106.915,-6.364],[106.918,-6.343],[106.921,-6.31],[106.971,-6.198],[106.968,-6.091],[106.841,-6.124],[106.688,-6.097],[106.718,-6.223]]]},"properties":{"code":"31","name":"Daerah Khusus Ibukota Jakarta","level":"province"}},
{"type":"Feature","geometry":{"type":"Polygon","coordinates":[[[123.122,0.889],[123.119,0.924],[122.945,0.964],[122.861,0.828],[122.664,0.935],[122.445,1],[122.193,1.038],[122.153,1.025],[122.081,1.001],[122.058,0.994],[122.019,0.957],[122.018,0.956],[122.039,0.962],[121.955,0.907],[121.814,0.951],[121.542,0.879],[121.532,0.853],[121.523,0.85],[121.489,0.84],[121.426,0.845],[121.355,0.852],[121.35,0.848],[121.358,0.819],[121.363,0.802],[121.359,0.8],[121.347,0.795],[121.299,0.794],[121.219,0.791],[121.162,0.677],[121.198,0.641],[121.352,0.493],[121.442,0.466],[121.637,0.545],[121.804,0.41],[122.113,0.486],[122.281,0.475],[122.66,0.515],[122.692,0.473],[123.059,0.507],[123.268,0.322],[123.479,0.322],[123.481,0.328],[123.494,0.369],[123.55,0.434],[123.533,0.577],[123.247,0.717],[123.271,0.803],[123.122,0.889]]]},"properties":{"code":"75","name":"Gorontalo","level":"province"}},
{"type":"Feature","geometry":{"type":"MultiPolygon","coordinates":[[[[101.406,-2.357],[101.556,-2.449],[101.668,-2.529],[101.672,-2.53],[101.852,-2.722],[101.859,-2.731],[102.033,-2.758],[102.082,-2.767],[102.095,-2.767],[102.099,-2.762],[102.131,-2.727],[102.146,-2.719],[102.271,-2.624],[102.31,-2.649],[102.362,-2.656],[102.406,-2.689],[102.507,-2.703],[102.536,-2.677],[102.545,-2.676],[102.6,-2.664],[102.604,-2.661],[102.623,-2.62],[102.787,-2.547],[102.879,-2.424],[102.868,-2.315],[103.119,-2.354],[103.301,-2.222],[103.454,-2.36],[103.455,-2.186],[103.525,-2.073],[103.5,-1.982],[103.521,-1.907],[103.604,-1.857],[103.696,-1.834],[103.85,-1.817],[103.873,-1.789],[104.42,-1.632],[104.461,-1.641],[104.464,-1.642],[104.465,-1.643],[104.438,-1.508],[104.456,-1.337],[104.392,-1.217],[104.366,-1.024],[104.207,-1.071],[103.913,-0.983],[103.808,-1.014],[103.675,-0.952],[103.548,-0.811],[103.437,-0.778],[103.353,-0.799],[103.112,-0.747],[103.004,-0.755],[102.928,-0.866],[102.642,-1.128],[102.473,-1.086],[102.289,-0.915],[102.203,-0.947],[102.056,-0.896],[102.017,-0.88],[102.013,-0.878],[101.992,-0.88],[101.987,-0.881],[101.962,-0.917],[101.894,-0.959],[101.886,-0.963],[101.845,-0.984],[101.824,-0.978],[101.829,-1.109],[101.859,-1.106],[101.871,-1.104],[101.888,-1.102],[101.892,-1.105],[101.891,-1.11],[101.817,-1.217],[101.727,-1.235],[101.675,-1.348],[101.722,-1.431],[101.635,-1.52],[101.523,-1.636],[101.489,-1.647],[101.477,-1.677],[101.438,-1.695],[101.418,-1.677],[101.395,-1.69],[101.373,-1.675],[101.332,-1.692],[101.324,-1.695],[101.266,-1.696],[101.132,-1.685],[101.138,-1.899],[101.261,-2.102],[101.293,-2.289],[101.296,-2.29],[101.319,-2.301],[101.382,-2.335],[101.381,-2.34],[101.379,-2.355],[101.406,-2.357]]],[[[104.499,-1.68],[104.493,-1.674],[104.498,-1.68],[104.499,-1.68]]]]},"properties":{"code":"15","name":"Jambi","level":"province"}},
{"type":"Feature","geometry":{"type":"Polygon","coordinates":[[[106.78,-6.317],[106.769,-6.361],[106.594,-6.363],[106.425,-6.35],[106.401,-6.453],[106.467,-6.751],[106.395,-6.973],[106.545,-7.055],[106.401,-7.186],[106.373,-7.308],[106.56,-7.417],[107.045,-7.449],[107.4,-7.494],[107.601,-7.571],[107.69,-7.668],[108.3,-7.815],[108.441,-7.821],[108.539,-7.691],[108.791,-7.692],[108.795,-7.687],[108.8,-7.669],[108.755,-7.559],[108.717,-7.481],[108.723,-7.431],[108.708,-7.418],[108.687,-7.399],[108.687,-7.398],[108.664,-7.349],[108.655,-7.342],[108.613,-7.346],[108.594,-7.349],[108.559,-7.335],[108.557,-7.314],[108.556,-7.288],[108.572,-7.2],[108.565,-7.18],[108.568,-7.169],[108.635,-7.139],[108.778,-7.095],[108.753,-6.921],[108.825,-6.832],[108.56,-6.684],[108.543,-6.485],[108.385,-6.358],[108.357,-6.262],[108.242,-6.25],[108.13,-6.335],[107.819,-6.187],[107.668,-6.239],[107.473,-6.149],[107.343,-5.97],[107.168,-5.989],[107.02,-5.919],[106.971,-6.198],[106.921,-6.31],[106.918,-6.343],[106.915,-6.364],[106.885,-6.373],[106.841,-6.336],[106.836,-6.355],[106.809,-6.315],[106.78,-6.317]]]},"properties":{"code":"32","name":"Jawa Barat","level":"province"}},
{"type":"Feature","geometry":{"type":"Polygon","coordinates":[[[110.658,-7.805],[110.671,-7.786],[110.786,-7.817],[110.756,-8.024],[110.789,-8.111],[110.804,-8.163],[110.829,-8.138],[110.815,-8.178],[110.814,-8.18],[110.833,-8.169],[110.908,-8.117],[111.251,-7.946],[111.282,-7.785],[111.181,-7.71],[111.197,-7.61],[111.119,-7.42],[111.15,-7.261],[111.347,-7.336],[111.424,-7.309],[111.442,-7.29],[111.439,-7.27],[111.451,-7.274],[111.452,-7.249],[111.587,-7.166],[111.611,-7.141],[111.612,-7.139],[111.613,-7.082],[111.619,-6.822],[111.661,-6.777],[111.562,-6.639],[111.492,-6.621],[111.37,-6.704],[111.144,-6.653],[111.047,-6.427],[110.838,-6.407],[110.728,-6.446],[110.64,-6.667],[110.522,-6.835],[110.501,-6.943],[110.325,-6.968],[110.179,-6.848],[109.982,-6.924],[109.582,-6.839],[109.517,-6.79],[109.288,-6.874],[109.102,-6.84],[109.053,-6.79],[108.825,-6.832],[108.753,-6.921],[108.778,-7.095],[108.635,-7.139],[108.568,-7.169],[108.565,-7.18],[108.572,-7.2],[108.556,-7.288],[108.557,-7.314],[108.559,-7.335],[108.594,-7.349],[108.613,-7.346],[108.655,-7.342],[108.664,-7.349],[108.687,-7.398],[108.687,-7.399],[108.708,-7.418],[108.723,-7.431],[108.717,-7.481],[108.755,-7.559],[108.8,-7.669],[108.967,-7.712],[109.107,-7.683],[109.321,-7.706],[110.006,-7.889],[110.032,-7.896],[110.063,-7.813],[110.13,-7.747],[110.141,-7.645],[110.261,-7.645],[110.272,-7.706],[110.445,-7.541],[110.491,-7.764],[110.492,-7.767],[110.494,-7.768],[110.531,-7.798],[110.558,-7.785],[110.563,-7.782],[110.564,-7.782],[110.586,-7.809],[110.651,-7.792],[110.658,-7.805]]]},"properties":{"code":"33","name":"Jawa Tengah","level":"province"}},
{"type":"Feature","geometry":{"type":"MultiPolygon","coordinates":[[[[111.613,-7.082],[111.612,-7.139],[111.611,-7.141],[111.587,-7.166],[111.452,-7.249],[111.451,-7.274],[111.439,-7.27],[111.442,-7.29],[111.424,-7.309],[111.347,-7.336],[111.15,-7.261],[111.119,-7.42],[111.197,-7.61],[111.181,-7.71],[111.282,-7.785],[111.251,-7.946],[110.908,-8.117],[110.9,-8.212],[111.154,-8.285],[111.258,-8.248],[111.431,-8.259],[111.648,-8.352],[111.899,-8.304],[112.221,-8.342],[112.33,-8.332],[112.443,-8.398],[112.652,-8.449],[112.774,-8.386],[112.914,-8.399],[113.08,-8.287],[113.316,-8.311],[113.389,-8.4],[113.796,-8.489],[114.06,-8.626],[114.329,-8.629],[114.345,-8.742],[114.532,-8.78],[114.57,-8.661],[114.423,-8.605],[114.341,-8.417],[114.421,-7.923],[114.465,-7.825],[114.371,-7.75],[114.108,-7.707],[114.038,-7.605],[113.94,-7.677],[113.764,-7.738],[113.488,-7.698],[113.345,-7.771],[113.108,-7.721],[113.028,-7.641],[112.888,-7.616],[112.841,-7.481],[112.845,-7.282],[112.623,-7.113],[112.65,-7.019],[112.593,-6.929],[112.418,-6.862],[112.051,-6.886],[111.961,-6.761],[111.838,-6.801],[111.661,-6.777],[111.619,-6.822],[111.613,-7.082]]],[[[113.909,-6.864],[113.507,-6.897],[112.864,-6.892],[112.724,-7.039],[112.691,-7.154],[112.865,-7.162],[113.1,-7.229],[113.327,-7.214],[113.552,-7.234],[113.607,-7.126],[113.878,-7.077],[114.092,-6.929],[113.909,-6.864]]],[[[115.267,-6.827],[115.293,-7.013],[115.404,-6.989],[115.436,-6.846],[115.267,-6.827]]]]},"properties":{"code":"35","name":"Jawa Timur","level":"province"}},
{"type":"Feature","geometry":{"type":"MultiPolygon","coordinates":[[[[109.498,-0.979],[109.458,-1.004],[109.427,-1.292],[109.497,-1.31],[109.78,-1.144],[109.761,-1.005],[109.715,-0.99],[109.674,-1.021],[109.636,-0.986],[109.498,-0.979]]],[[[109.252,-0.662],[109.239,-0.812],[109.302,-0.902],[109.439,-0.853],[109.721,-0.974],[109.71,-0.832],[109.252,-0.662]]],[[[114.155,1.374],[114.141,1.467],[113.975,1.45],[113.822,1.374],[113.804,1.3],[113.632,1.219],[113.583,1.308],[113.421,1.285],[113.328,1.375],[113.144,1.388],[113.059,1.559],[112.885,1.587],[112.775,1.564],[112.501,1.584],[112.434,1.527],[112.212,1.45],[112.143,1.135],[111.997,1.14],[111.829,0.986],[111.666,1.043],[111.581,0.979],[111.413,1.008],[111.232,1.086],[110.905,1.029],[110.861,0.951],[110.575,0.854],[110.49,0.877],[110.396,0.998],[110.277,0.996],[110.193,1.183],[110.065,1.209],[109.979,1.298],[109.963,1.404],[109.662,1.617],[109.685,1.782],[109.586,1.792],[109.476,1.982],[109.338,1.943],[109.337,1.833],[109.262,1.677],[109.056,1.521],[109.043,1.356],[108.904,1.171],[108.979,0.992],[108.943,0.892],[108.841,0.815],[108.928,0.626],[108.913,0.34],[109.094,0.244],[109.194,0.061],[109.159,-0.038],[109.181,-0.194],[109.087,-0.279],[109.114,-0.504],[109.251,-0.605],[109.374,-0.585],[109.657,-0.671],[109.698,-0.717],[109.733,-0.988],[109.763,-0.994],[109.768,-1.034],[109.803,-1.049],[109.819,-1.092],[109.94,-1.124],[109.908,-1.21],[110.069,-1.363],[110.027,-1.683],[109.913,-1.774],[109.924,-1.858],[110.067,-1.931],[110.12,-2.03],[110.085,-2.179],[110.182,-2.457],[110.224,-2.887],[110.306,-2.996],[110.419,-2.897],[110.569,-2.84],[110.733,-2.996],[110.776,-2.924],[110.97,-2.856],[111.176,-2.688],[111.1,-2.451],[111.116,-2.327],[111.023,-2.224],[111.101,-1.989],[110.951,-1.887],[110.952,-1.846],[110.978,-1.828],[110.971,-1.812],[110.918,-1.691],[110.893,-1.657],[111.006,-1.504],[111.254,-1.438],[111.424,-1.267],[111.555,-1.202],[111.571,-1.058],[111.64,-0.968],[111.838,-0.906],[112.147,-0.731],[112.26,-0.632],[112.315,-0.723],[112.688,-0.659],[112.745,-0.572],[113.131,-0.452],[113.271,-0.426],[113.22,-0.334],[113.33,-0.152],[113.422,-0.11],[113.392,0.141],[113.433,0.262],[113.448,0.263],[113.509,0.303],[113.545,0.326],[113.562,0.354],[113.583,0.361],[113.586,0.362],[113.582,0.398],[113.582,0.399],[113.649,0.434],[113.652,0.437],[113.654,0.443],[113.667,0.497],[113.669,0.498],[113.765,0.571],[113.797,0.595],[113.798,0.595],[113.8,0.594],[113.824,0.579],[113.851,0.608],[113.821,0.643],[113.842,0.662],[113.926,0.841],[113.915,1.002],[113.89,1.043],[113.89,1.046],[113.891,1.048],[114.053,1.127],[114.088,1.159],[114.118,1.149],[114.124,1.152],[114.155,1.374]]]]},"properties":{"code":"61","name":"Kalimantan Barat","level":"province"}},
{"type":"Feature","geometry":{"type":"MultiPolygon","coordinates":[[[[116.41,-3.361],[116.313,-3.555],[116.399,-3.627],[116.435,-3.422],[116.41,-3.361]]],[[[116.26,-3.212],[116.114,-3.308],[116.002,-3.638],[116.081,-3.825],[116.039,-4.023],[116.097,-4.055],[116.273,-3.907],[116.301,-3.713],[116.271,-3.547],[116.314,-3.475],[116.249,-3.375],[116.26,-3.212]]],[[[115.689,-1.449],[115.738,-1.353],[115.755,-1.321],[115.756,-1.316],[115.709,-1.339],[115.471,-1.43],[115.359,-1.588],[115.314,-1.825],[115.42,-1.892],[115.409,-2.058],[115.355,-2.095],[115.336,-2.096],[115.254,-2.209],[114.883,-2.489],[114.796,-2.593],[114.762,-2.72],[114.598,-2.816],[114.523,-3.004],[114.546,-3.068],[114.424,-3.18],[114.36,-3.316],[114.352,-3.464],[114.572,-3.571],[114.623,-3.711],[114.602,-3.809],[114.638,-4.028],[114.619,-4.161],[114.709,-4.17],[115.023,-4.006],[115.478,-3.81],[115.716,-3.732],[115.833,-3.631],[115.968,-3.61],[116.012,-3.419],[116.084,-3.28],[116.177,-3.251],[116.173,-3.062],[116.364,-2.878],[116.367,-2.668],[116.425,-2.5],[116.512,-2.562],[116.548,-2.403],[116.328,-2.341],[116.236,-2.309],[116.16,-2.308],[116.153,-2.312],[116.114,-2.338],[115.89,-2.337],[115.785,-2.216],[115.814,-2.072],[115.722,-2.063],[115.728,-1.799],[115.665,-1.707],[115.628,-1.468],[115.689,-1.449]]]]},"properties":{"code":"63","name":"Kalimantan Selatan","level":"province"}},
{"type":"Feature","geometry":{"type":"Polygon","coordinates":[[[114.932,0.773],[114.909,0.791],[114.662,0.702],[114.652,0.675],[114.43,0.542],[114.374,0.558],[114.37,0.555],[114.364,0.53],[114.255,0.526],[114.238,0.525],[114.158,0.678],[113.921,0.644],[113.821,0.643],[113.851,0.608],[113.824,0.579],[113.8,0.594],[113.798,0.595],[113.797,0.595],[113.765,0.571],[113.669,0.498],[113.667,0.497],[113.654,0.443],[113.652,0.437],[113.649,0.434],[113.582,0.399],[113.582,0.398],[113.586,0.362],[113.583,0.361],[113.562,0.354],[113.545,0.326],[113.509,0.303],[113.448,0.263],[113.433,0.262],[113.392,0.141],[113.422,-0.11],[113.33,-0.152],[113.22,-0.334],[113.271,-0.426],[113.131,-0.452],[112.745,-0.572],[112.688,-0.659],[112.315,-0.723],[112.26,-0.632],[112.147,-0.731],[111.838,-0.906],[111.64,-0.968],[111.571,-1.058],[111.555,-1.202],[111.424,-1.267],[111.254,-1.438],[111.006,-1.504],[110.893,-1.657],[110.918,-1.691],[110.971,-1.812],[110.978,-1.828],[110.952,-1.846],[110.951,-1.887],[111.101,-1.989],[111.023,-2.224],[111.116,-2.327],[111.1,-2.451],[111.176,-2.688],[110.97,-2.856],[110.776,-2.924],[110.733,-2.996],[110.81,-2.979],[110.977,-3.066],[111.113,-3.027],[111.334,-2.911],[111.412,-2.903],[111.549,-3.023],[111.718,-2.847],[111.813,-3],[111.798,-3.197],[111.817,-3.405],[111.769,-3.504],[111.907,-3.538],[112.082,-3.404],[112.262,-3.313],[112.381,-3.332],[112.568,-3.43],[112.919,-3.241],[112.942,-3.111],[113.047,-2.974],[113.344,-3.281],[113.45,-3.19],[113.6,-3.166],[113.632,-3.321],[113.581,-3.442],[113.821,-3.45],[113.95,-3.37],[114.077,-3.351],[114.352,-3.464],[114.36,-3.316],[114.424,-3.18],[114.546,-3.068],[114.523,-3.004],[114.598,-2.816],[114.762,-2.72],[114.796,-2.593],[114.883,-2.489],[115.254,-2.209],[115.336,-2.096],[115.355,-2.095],[115.409,-2.058],[115.42,-1.892],[115.314,-1.825],[115.359,-1.588],[115.471,-1.43],[115.709,-1.339],[115.757,-1.314],[115.849,-1.172],[115.82,-1.089],[115.76,-1.131],[115.742,-1.11],[115.679,-1.009],[115.547,-0.854],[115.414,-0.874],[115.289,-0.799],[115.381,-0.572],[115.232,-0.36],[115.24,-0.167],[115.294,-0.051],[115.262,-0.048],[115.06,-0.152],[115.039,-0.24],[114.92,-0.233],[114.898,-0.032],[114.737,0.031],[114.711,0.071],[114.71,0.075],[114.719,0.081],[114.903,0.318],[115.129,0.374],[115.137,0.425],[115.014,0.599],[114.932,0.773]]]},"properties":{"code":"62","name":"Kalimantan Tengah","level":"province"}},
{"type":"Feature","geometry":{"type":"Polygon","coordinates":[[[117.208,2.566],[117.192,2.563],[117.048,2.548],[117.015,2.498],[116.845,2.52],[116.686,2.399],[116.567,2.453],[116.497,2.452],[116.504,2.348],[116.402,2.298],[116.334,2.29],[116.302,2.25],[116.29,2.235],[116.348,2.181],[116.176,1.899],[116.179,1.875],[116.184,1.833],[116.181,1.824],[116.142,1.694],[116.131,1.667],[116.103,1.659],[116.071,1.649],[116.041,1.557],[115.854,1.434],[115.821,1.345],[115.773,1.308],[115.765,1.263],[115.754,1.262],[115.659,1.29],[115.428,1.223],[115.372,1.117],[115.28,1.134],[115.114,1.181],[115.017,1.348],[114.908,1.418],[114.727,1.315],[114.714,1.33],[114.696,1.353],[114.665,1.357],[114.609,1.39],[114.572,1.389],[114.566,1.428],[114.563,1.432],[114.562,1.434],[114.405,1.523],[114.155,1.374],[114.124,1.152],[114.118,1.149],[114.088,1.159],[114.053,1.127],[113.891,1.048],[113.89,1.046],[113.89,1.043],[113.915,1.002],[113.926,0.841],[113.842,0.662],[113.921,0.644],[114.158,0.678],[114.238,0.525],[114.255,0.526],[114.364,0.53],[114.37,0.555],[114.374,0.558],[114.43,0.542],[114.652,0.675],[114.662,0.702],[114.909,0.791],[114.932,0.773],[115.014,0.599],[115.137,0.425],[115.129,0.374],[114.903,0.318],[114.719,0.081],[114.71,0.075],[114.711,0.071],[114.737,0.031],[114.898,-0.032],[114.92,-0.233],[115.039,-0.24],[115.06,-0.152],[115.262,-0.048],[115.294,-0.051],[115.24,-0.167],[115.232,-0.36],[115.381,-0.572],[115.289,-0.799],[115.414,-0.874],[115.547,-0.854],[115.679,-1.009],[115.742,-1.11],[115.76,-1.131],[115.82,-1.089],[115.849,-1.172],[115.757,-1.314],[115.756,-1.316],[115.755,-1.321],[115.738,-1.353],[115.689,-1.449],[115.628,-1.468],[115.665,-1.707],[115.728,-1.799],[115.722,-2.063],[115.814,-2.072],[115.785,-2.216],[115.89,-2.337],[116.114,-2.338],[116.153,-2.312],[116.16,-2.308],[116.236,-2.309],[116.328,-2.341],[116.559,-2.405],[116.597,-2.203],[116.392,-2.117],[116.459,-2.056],[116.449,-1.771],[116.318,-1.695],[116.559,-1.601],[116.556,-1.448],[116.762,-1.362],[117,-1.201],[117.167,-0.957],[117.249,-0.907],[117.303,-0.679],[117.276,-0.577],[117.412,-0.539],[117.465,-0.371],[117.417,-0.223],[117.518,-0.031],[117.49,0.19],[117.605,0.488],[117.769,0.771],[117.914,0.837],[118.029,0.781],[118.064,0.903],[118.546,0.808],[118.672,0.857],[118.76,0.806],[118.964,0.943],[118.98,1.038],[118.777,1.134],[118.765,1.2],[118.582,1.353],[118.44,1.373],[118.411,1.487],[118.135,1.634],[118.048,1.783],[117.918,1.813],[117.807,1.986],[117.72,2.061],[117.69,2.181],[118.019,2.197],[118.096,2.276],[117.983,2.432],[117.747,2.327],[117.609,2.522],[117.393,2.561],[117.288,2.492],[117.208,2.566]]]},"properties":{"code":"64","name":"Kalimantan Timur","level":"province"}},
{"type":"Feature","geometry":{"type":"MultiPolygon","coordinates":[[[[117.983,2.432],[117.8,2.626],[117.785,2.748],[117.667,2.988],[117.479,3.098],[117.418,3.247],[117.444,3.341],[117.357,3.448],[117.218,3.493],[117.221,3.609],[117.381,3.64],[117.486,3.721],[117.564,3.641],[117.737,3.632],[117.815,3.721],[117.695,3.867],[117.499,3.913],[117.438,4.013],[117.518,4.099],[117.372,4.286],[117.2,4.335],[116.703,4.334],[116.569,4.408],[116.537,4.321],[116.354,4.389],[116.167,4.391],[116.072,4.277],[116.003,4.348],[115.689,4.175],[115.577,3.747],[115.609,3.511],[115.515,3.222],[115.562,3.17],[115.497,3.028],[115.164,2.927],[115.1,2.717],[115.249,2.509],[115.144,2.476],[114.948,2.316],[114.917,2.255],[114.741,2.191],[114.793,2.058],[114.888,2.023],[114.882,1.914],[114.747,1.869],[114.709,1.638],[114.61,1.575],[114.566,1.428],[114.572,1.389],[114.609,1.39],[114.665,1.357],[114.696,1.353],[114.714,1.33],[114.727,1.315],[114.908,1.418],[115.017,1.348],[115.114,1.181],[115.28,1.134],[115.372,1.117],[115.428,1.223],[115.659,1.29],[115.754,1.262],[115.765,1.263],[115.773,1.308],[115.821,1.345],[115.854,1.434],[116.041,1.557],[116.071,1.649],[116.103,1.659],[116.131,1.667],[116.142,1.694],[116.181,1.824],[116.184,1.833],[116.179,1.875],[116.176,1.899],[116.348,2.181],[116.29,2.235],[116.302,2.25],[116.334,2.29],[116.402,2.298],[116.504,2.348],[116.497,2.452],[116.567,2.453],[116.686,2.399],[116.845,2.52],[117.015,2.498],[117.048,2.548],[117.192,2.563],[117.208,2.566],[117.288,2.492],[117.393,2.561],[117.609,2.522],[117.747,2.327],[117.983,2.432]]],[[[117.66,4.147],[117.589,4.079],[117.672,3.966],[117.754,4.061],[117.66,4.147]]],[[[117.748,4.167],[117.861,4.029],[117.902,4.166],[117.748,4.167]]]]},"properties":{"code":"65","name":"Kalimantan Utara","level":"province"}},
{"type":"Feature","geometry":{"type":"MultiPolygon","coordinates":[[[[107.817,-2.527],[107.668,-2.554],[107.61,-2.705],[107.615,-2.913],[107.561,-3],[107.629,-3.143],[107.708,-3.193],[107.828,-3.168],[108.077,-3.247],[108.175,-3.16],[108.208,-3.013],[108.3,-2.848],[108.27,-2.751],[108.087,-2.597],[107.903,-2.577],[107.817,-2.527]]],[[[105.916,-1.502],[105.703,-1.528],[105.775,-1.767],[105.656,-1.747],[105.599,-1.547],[105.47,-1.561],[105.32,-1.698],[105.4,-1.75],[105.349,-1.846],[105.164,-1.929],[105.109,-2.024],[105.243,-2.072],[105.298,-2.154],[105.489,-2.093],[105.717,-2.124],[105.791,-2.178],[105.835,-2.413],[105.938,-2.53],[105.887,-2.644],[105.95,-2.82],[106.094,-2.837],[106.424,-2.971],[106.515,-3.113],[106.738,-3.086],[106.593,-2.899],[106.659,-2.722],[106.758,-2.6],[106.376,-2.474],[106.237,-2.328],[106.158,-2.09],[106.136,-1.855],[106.026,-1.676],[106.048,-1.6],[105.916,-1.502]]]]},"properties":{"code":"19","name":"Kepulauan Bangka Belitung","level":"province"}},
{"type":"Feature","geometry":{"type":"MultiPolygon","coordinates":[[[[104.479,-0.336],[104.427,-0.397],[104.277,-0.396],[104.26,-0.475],[104.397,-0.603],[104.504,-0.644],[104.601,-0.468],[104.479,-0.336]]],[[[104.555,0.026],[104.513,-0.104],[104.427,-0.184],[104.521,-0.276],[104.703,-0.205],[104.849,-0.322],[104.921,-0.276],[104.734,-0.14],[104.555,0.026]]],[[[103.376,0.897],[103.351,0.741],[103.457,0.638],[103.512,0.757],[103.376,0.897]]],[[[104.12,0.962],[104.092,0.87],[104.178,0.783],[104.266,0.86],[104.12,0.962]]],[[[104.098,1.199],[103.921,1.143],[103.911,1.038],[104.008,0.986],[104.133,1.034],[104.098,1.199]]],[[[104.571,1.23],[104.499,1.169],[104.394,1.204],[104.239,1.124],[104.26,1],[104.409,0.963],[104.476,0.85],[104.593,0.81],[104.66,0.914],[104.657,1.045],[104.571,1.23]]],[[[108.223,4.227],[108.033,4.058],[107.99,3.943],[108.063,3.835],[108.173,3.799],[108.09,3.681],[108.156,3.63],[108.297,3.659],[108.387,3.794],[108.347,3.999],[108.234,4.128],[108.223,4.227]]]]},"properties":{"code":"21","name":"Kepulauan Riau","level":"province"}},
{"type":"Feature","geometry":{"type":"Polygon","coordinates":[[[103.79,-4.779],[103.617,-4.889],[103.599,-4.904],[103.596,-4.913],[103.711,-4.963],[103.913,-5.129],[104.069,-5.408],[104.299,-5.576],[104.567,-5.869],[104.584,-5.943],[104.733,-5.929],[104.647,-5.698],[104.531,-5.543],[104.709,-5.522],[104.777,-5.605],[105.087,-5.756],[105.236,-5.592],[105.29,-5.445],[105.408,-5.622],[105.59,-5.735],[105.615,-5.835],[105.799,-5.794],[105.826,-5.588],[105.818,-5.336],[105.864,-5.255],[105.859,-5.037],[105.901,-4.938],[105.861,-4.798],[105.915,-4.645],[105.89,-4.438],[105.82,-4.339],[105.814,-4.14],[105.777,-4.112],[105.775,-4.111],[105.773,-4.114],[105.745,-4.144],[105.702,-4.136],[105.631,-4.004],[105.416,-3.777],[105.358,-3.796],[105.345,-3.741],[105.33,-3.728],[105.327,-3.727],[105.306,-3.789],[105.305,-3.791],[105.277,-3.877],[105.139,-3.936],[105.014,-4.175],[104.873,-4.236],[104.706,-4.259],[104.621,-4.214],[104.384,-4.348],[104.311,-4.513],[104.295,-4.647],[104.335,-4.872],[104.285,-4.856],[104.144,-4.924],[103.936,-4.885],[103.846,-4.919],[103.865,-4.851],[103.858,-4.84],[103.839,-4.823],[103.826,-4.811],[103.808,-4.795],[103.79,-4.779]]]},"properties":{"code":"18","name":"Lampung","level":"province"}},
{"type":"Feature","geometry":{"type":"MultiPolygon","coordinates":[[[[127.79,-8.105],[127.802,-8.191],[128.045,-8.259],[128.09,-8.137],[127.953,-8.147],[127.79,-8.105]]],[[[131.034,-8.078],[130.923,-8.135],[130.987,-8.236],[131.14,-8.161],[131.034,-8.078]]],[[[129.679,-7.786],[129.582,-7.899],[129.708,-8.041],[129.792,-8.043],[129.864,-7.919],[129.819,-7.817],[129.679,-7.786]]],[[[126.626,-7.557],[126.471,-7.589],[126.323,-7.695],[126.185,-7.728],[125.947,-7.662],[125.807,-7.861],[125.87,-7.977],[126.071,-7.888],[126.177,-7.925],[126.33,-7.914],[126.475,-7.971],[126.562,-7.815],[126.696,-7.751],[126.723,-7.667],[126.626,-7.557]]],[[[131.654,-7.118],[131.53,-7.147],[131.428,-7.335],[131.236,-7.477],[131.185,-7.704],[131.082,-7.848],[131.103,-7.996],[131.232,-8.007],[131.294,-7.924],[131.622,-7.65],[131.672,-7.496],[131.631,-7.258],[131.654,-7.118]]],[[[128.612,-7.063],[128.525,-7.143],[128.648,-7.218],[128.7,-7.107],[128.612,-7.063]]],[[[134.456,-6.276],[134.362,-6.368],[134.421,-6.404],[134.443,-6.438],[134.506,-6.41],[134.533,-6.341],[134.456,-6.276]]],[[[134.114,-6.161],[134.137,-6.31],[134.099,-6.49],[134.072,-6.83],[134.212,-6.907],[134.332,-6.861],[134.387,-6.734],[134.495,-6.656],[134.46,-6.433],[134.419,-6.45],[134.426,-6.418],[134.339,-6.398],[134.224,-6.222],[134.114,-6.161]]],[[[134.152,-6.005],[134.115,-6.101],[134.283,-6.28],[134.303,-6.169],[134.152,-6.005]]],[[[134.54,-5.92],[134.439,-6.015],[134.319,-6.024],[134.271,-6.11],[134.323,-6.197],[134.452,-6.231],[134.547,-6.347],[134.729,-6.302],[134.783,-6.094],[134.662,-5.975],[134.54,-5.92]]],[[[132.71,-5.594],[132.64,-5.636],[132.69,-5.836],[132.814,-5.84],[132.71,-5.594]]],[[[134.555,-5.562],[134.616,-5.723],[134.7,-5.727],[134.747,-5.62],[134.555,-5.562]]],[[[134.458,-5.529],[134.335,-5.728],[134.396,-5.79],[134.298,-5.898],[134.309,-6.022],[134.467,-5.958],[134.691,-5.822],[134.458,-5.529]]],[[[134.588,-5.42],[134.507,-5.555],[134.69,-5.559],[134.588,-5.42]]],[[[133.157,-5.276],[133.074,-5.388],[133.006,-5.649],[133.12,-5.566],[133.157,-5.276]]],[[[128.289,-3.491],[128.17,-3.587],[128.026,-3.592],[127.92,-3.683],[127.998,-3.781],[128.117,-3.686],[128.227,-3.748],[128.356,-3.629],[128.289,-3.491]]],[[[126.712,-3.057],[126.3,-3.093],[126.202,-3.186],[126.091,-3.112],[126.005,-3.262],[126.074,-3.478],[126.233,-3.619],[126.696,-3.862],[126.953,-3.771],[127.051,-3.689],[127.221,-3.662],[127.258,-3.373],[127.075,-3.374],[126.985,-3.139],[126.712,-3.057]]],[[[129.528,-2.773],[129.377,-2.789],[129.348,-2.857],[129.131,-2.969],[129.049,-2.795],[128.839,-2.866],[128.509,-2.834],[128.398,-2.871],[128.163,-2.864],[128.115,-3.065],[128.005,-3.072],[127.872,-3.189],[127.983,-3.385],[128.055,-3.34],[128.09,-3.131],[128.154,-3.069],[128.269,-3.204],[128.405,-3.429],[128.521,-3.458],[128.674,-3.433],[128.716,-3.32],[128.885,-3.204],[128.967,-3.227],[128.935,-3.356],[129.084,-3.341],[129.226,-3.4],[129.409,-3.418],[129.532,-3.47],[129.52,-3.299],[129.922,-3.337],[130.018,-3.483],[130.413,-3.63],[130.62,-3.793],[130.819,-3.851],[130.833,-3.658],[130.882,-3.591],[130.805,-3.407],[130.663,-3.399],[130.603,-3.153],[130.494,-3.102],[130.352,-2.974],[130.195,-3.01],[130.036,-3.004],[129.814,-2.914],[129.786,-2.865],[129.528,-2.773]]]]},"properties":{"code":"81","name":"Maluku","level":"province"}},
{"type":"Feature","geometry":{"type":"MultiPolygon","coordinates":[[[[125.914,-1.978],[125.858,-2.061],[125.88,-2.21],[125.976,-2.418],[126.072,-2.42],[125.958,-2.16],[125.992,-2.028],[125.914,-1.978]]],[[[125.41,-1.778],[125.329,-1.858],[125.529,-1.948],[125.842,-1.895],[125.919,-1.939],[126.089,-1.879],[125.913,-1.793],[125.728,-1.827],[125.488,-1.82],[125.41,-1.778]]],[[[124.527,-1.635],[124.4,-1.66],[124.337,-1.89],[124.405,-2.033],[124.681,-1.976],[124.774,-1.916],[125.008,-1.943],[125.044,-1.887],[125.327,-1.885],[125.289,-1.731],[125.129,-1.684],[125.103,-1.761],[124.871,-1.68],[124.527,-1.635]]],[[[127.643,-1.331],[127.417,-1.478],[127.392,-1.62],[127.497,-1.724],[127.89,-1.683],[128.024,-1.727],[128.156,-1.683],[128.12,-1.565],[127.936,-1.449],[127.643,-1.331]]],[[[127.526,-0.301],[127.426,-0.406],[127.291,-0.457],[127.444,-0.628],[127.475,-0.823],[127.634,-0.741],[127.739,-0.861],[127.87,-0.827],[127.874,-0.718],[127.648,-0.683],[127.6,-0.577],[127.693,-0.456],[127.526,-0.301]]],[[[127.24,-0.245],[127.109,-0.283],[127.164,-0.531],[127.278,-0.456],[127.24,-0.245]]],[[[127.957,2.221],[127.575,1.76],[127.585,1.661],[127.527,1.448],[127.407,1.234],[127.512,0.973],[127.491,0.893],[127.637,0.812],[127.548,0.729],[127.527,0.554],[127.579,0.415],[127.734,0.311],[127.696,0.185],[127.722,0.072],[127.661,-0.209],[127.751,-0.32],[127.864,-0.365],[128.019,-0.686],[128.227,-0.775],[128.285,-0.879],[128.377,-0.85],[128.22,-0.706],[128.049,-0.417],[127.89,-0.004],[127.93,0.11],[127.879,0.302],[127.92,0.458],[128.079,0.477],[128.281,0.396],[128.458,0.404],[128.559,0.318],[128.67,0.346],[128.679,0.55],[128.571,0.562],[128.324,0.652],[128.198,0.789],[128.334,0.912],[128.534,0.972],[128.699,1.064],[128.691,1.198],[128.742,1.37],[128.67,1.59],[128.472,1.552],[128.192,1.389],[128.166,1.124],[128.032,1.116],[127.933,1.005],[127.931,0.877],[127.797,0.788],[127.665,0.883],[127.651,1.022],[127.758,1.069],[128.011,1.314],[127.987,1.366],[128.037,1.581],[128.012,1.737],[127.861,1.806],[127.851,1.925],[128.065,2.174],[127.957,2.221]]],[[[128.592,2.612],[128.467,2.597],[128.298,2.442],[128.246,2.124],[128.297,2.035],[128.505,2.059],[128.623,2.215],[128.688,2.502],[128.592,2.612]]]]},"properties":{"code":"82","name":"Maluku Utara","level":"province"}},
{"type":"Feature","geometry":{"type":"MultiPolygon","coordinates":[[[[116.371,-8.21],[116.254,-8.254],[116.042,-8.422],[116.074,-8.614],[116.039,-8.764],[115.821,-8.752],[115.831,-8.815],[116.028,-8.884],[116.151,-8.863],[116.436,-8.92],[116.665,-8.562],[116.724,-8.367],[116.651,-8.288],[116.371,-8.21]]],[[[117.56,-8.144],[117.48,-8.192],[117.528,-8.39],[117.663,-8.15],[117.56,-8.144]]],[[[117.937,-8.083],[117.724,-8.15],[117.692,-8.238],[117.98,-8.465],[118.105,-8.495],[118.278,-8.591],[118.204,-8.673],[118.036,-8.671],[117.963,-8.743],[117.773,-8.712],[117.761,-8.599],[117.632,-8.561],[117.562,-8.405],[117.388,-8.473],[117.155,-8.364],[117.024,-8.464],[116.843,-8.539],[116.764,-8.654],[116.805,-8.778],[116.716,-8.966],[116.788,-9.036],[116.942,-9.053],[117.015,-9.11],[117.192,-9.02],[117.411,-9.049],[117.691,-8.919],[117.886,-8.943],[118.008,-8.854],[118.185,-8.854],[118.354,-8.685],[118.412,-8.868],[118.467,-8.889],[118.72,-8.793],[118.836,-8.846],[118.899,-8.763],[119.172,-8.724],[119.055,-8.653],[119.013,-8.538],[119.054,-8.464],[119.001,-8.31],[118.821,-8.281],[118.698,-8.397],[118.646,-8.29],[118.464,-8.246],[118.335,-8.365],[118.163,-8.242],[118.143,-8.135],[117.937,-8.083]]]]},"properties":{"code":"52","name":"Nusa Tenggara Barat","level":"province"}},
{"type":"Feature","geometry":{"type":"MultiPolygon","coordinates":[[[[123.379,-10.431],[123.043,-10.729],[122.81,-10.782],[122.832,-10.931],[123.133,-10.815],[123.421,-10.614],[123.379,-10.431]]],[[[121.953,-10.434],[121.86,-10.436],[121.749,-10.615],[121.875,-10.618],[121.994,-10.535],[121.953,-10.434]]],[[[123.453,-10.115],[123.301,-10.271],[123.409,-10.335],[123.453,-10.115]]],[[[119.939,-9.279],[119.794,-9.399],[119.627,-9.345],[119.386,-9.383],[119.173,-9.376],[118.99,-9.456],[118.928,-9.557],[119.026,-9.675],[119.395,-9.797],[119.469,-9.741],[119.671,-9.781],[119.784,-9.922],[119.863,-9.922],[119.995,-10.037],[120.165,-10.24],[120.614,-10.253],[120.842,-10.089],[120.784,-9.948],[120.677,-9.898],[120.597,-9.731],[120.465,-9.615],[120.323,-9.67],[120.251,-9.647],[120.211,-9.491],[120.085,-9.47],[119.939,-9.279]]],[[[124.947,-8.957],[124.801,-9.009],[124.614,-9.154],[124.483,-9.198],[124.355,-9.485],[124.217,-9.366],[124.15,-9.427],[123.994,-9.343],[123.934,-9.422],[123.673,-9.631],[123.668,-9.854],[123.595,-9.902],[123.581,-10.018],[123.695,-10.01],[123.741,-10.099],[123.489,-10.224],[123.611,-10.37],[123.798,-10.355],[124.019,-10.273],[124.144,-10.16],[124.401,-10.168],[124.548,-10.011],[124.751,-9.882],[124.853,-9.731],[124.948,-9.68],[124.988,-9.556],[125.088,-9.462],[124.983,-9.191],[125.097,-9.202],[125.181,-9.021],[124.984,-9.066],[124.947,-8.957]]],[[[123.211,-8.225],[123.033,-8.308],[123.001,-8.41],[123.295,-8.388],[123.334,-8.264],[123.211,-8.225]]],[[[124.292,-8.177],[124.09,-8.376],[124.066,-8.491],[124.142,-8.538],[124.309,-8.312],[124.292,-8.177]]],[[[123.783,-8.171],[123.559,-8.368],[123.471,-8.338],[123.29,-8.464],[123.393,-8.586],[123.62,-8.406],[123.676,-8.427],[123.766,-8.288],[123.783,-8.171]]],[[[124.53,-8.123],[124.4,-8.22],[124.355,-8.439],[124.658,-8.391],[125.121,-8.34],[125.095,-8.147],[124.667,-8.162],[124.53,-8.123]]],[[[122.867,-8.063],[122.783,-8.108],[122.893,-8.277],[122.766,-8.363],[122.597,-8.393],[122.472,-8.609],[122.233,-8.627],[122.16,-8.554],[121.913,-8.496],[121.681,-8.512],[121.419,-8.592],[121.308,-8.48],[121.022,-8.415],[120.978,-8.346],[120.678,-8.323],[120.602,-8.255],[120.468,-8.296],[120.201,-8.306],[120.126,-8.416],[119.881,-8.478],[119.804,-8.573],[119.801,-8.765],[119.89,-8.813],[120.15,-8.786],[120.315,-8.855],[120.367,-8.816],[120.595,-8.815],[120.745,-8.894],[120.838,-8.829],[120.931,-8.933],[121.03,-8.956],[121.179,-8.885],[121.342,-8.905],[121.389,-8.789],[121.591,-8.805],[121.776,-8.882],[122.03,-8.795],[122.115,-8.729],[122.421,-8.744],[122.558,-8.666],[122.831,-8.59],[122.914,-8.329],[123.02,-8.317],[122.972,-8.133],[122.867,-8.063]]]]},"properties":{"code":"53","name":"Nusa Tenggara Timur","level":"province"}},
{"type":"Feature","geometry":{"type":"MultiPolygon","coordinates":[[[[135.473,-1.599],[135.474,-1.68],[135.732,-1.688],[135.978,-1.817],[136.248,-1.886],[136.628,-1.873],[136.789,-1.74],[136.369,-1.717],[136.203,-1.648],[136.052,-1.659],[135.473,-1.599]]],[[[141.001,-4.02],[141.001,-2.604],[140.686,-2.614],[140.712,-2.487],[140.433,-2.412],[140.23,-2.42],[140.111,-2.319],[140.057,-2.36],[139.811,-2.379],[139.365,-2.148],[138.993,-1.973],[138.863,-1.966],[138.665,-1.793],[138.389,-1.725],[138.077,-1.606],[137.934,-1.458],[137.681,-1.507],[137.481,-1.597],[137.236,-1.751],[137.103,-1.792],[137.233,-2.049],[137.158,-2.106],[136.943,-2.123],[136.747,-2.253],[136.6,-2.253],[136.51,-2.191],[136.339,-2.264],[136.224,-2.614],[136.048,-2.72],[136.143,-2.773],[136.144,-2.797],[136.247,-2.842],[136.243,-2.861],[136.265,-2.887],[136.266,-2.887],[136.463,-3.062],[136.567,-3.254],[136.723,-3.238],[136.727,-3.238],[136.77,-3.251],[136.867,-3.246],[136.851,-3.258],[136.851,-3.261],[136.899,-3.407],[136.957,-3.331],[136.888,-3.262],[136.903,-3.158],[137.041,-3.204],[137.161,-3.132],[137.348,-3.09],[137.444,-3.107],[137.622,-3.04],[137.882,-3.083],[137.908,-3.051],[137.9,-3.015],[138.026,-3.016],[138.054,-2.984],[138.125,-3.027],[138.144,-3.046],[138.102,-3],[138.124,-2.978],[138.155,-2.978],[138.165,-2.979],[138.17,-2.986],[138.177,-3.11],[138.181,-3.113],[138.235,-3.152],[138.235,-3.153],[138.185,-3.206],[138.185,-3.207],[138.291,-3.174],[138.352,-3.239],[138.598,-3.333],[138.749,-3.175],[138.919,-3.279],[139.141,-3.36],[139.143,-3.428],[139.34,-3.484],[139.477,-3.462],[139.518,-3.657],[139.593,-3.705],[139.704,-3.637],[139.703,-3.543],[139.968,-3.613],[140.005,-3.702],[140.273,-3.67],[140.407,-3.733],[140.688,-3.793],[140.707,-3.909],[140.61,-4.062],[140.89,-3.961],[140.974,-3.967],[141.001,-4.02]]],[[[134.856,-0.931],[134.795,-1.033],[134.857,-1.137],[134.982,-1.072],[134.943,-0.97],[134.856,-0.931]]],[[[135.811,-0.685],[135.765,-0.739],[135.731,-0.755],[135.724,-0.794],[135.74,-0.803],[135.794,-0.984],[135.802,-1.098],[135.858,-1.167],[136.038,-1.148],[136.145,-1.2],[136.315,-1.14],[136.257,-1.017],[136.173,-1.044],[136.029,-0.837],[135.811,-0.685]]],[[[135.393,-0.621],[135.411,-0.746],[135.531,-0.783],[135.643,-0.887],[135.684,-0.84],[135.699,-0.802],[135.72,-0.784],[135.732,-0.753],[135.747,-0.74],[135.645,-0.663],[135.534,-0.674],[135.393,-0.621]]]]},"properties":{"code":"91","name":"Papua","level":"province"}},
{"type":"Feature","geometry":{"type":"MultiPolygon","coordinates":[[[[131.458,-0.944],[131.45,-0.912],[131.386,-0.904],[131.382,-0.907],[131.397,-0.933],[131.435,-0.97],[131.458,-0.944]]],[[[132.599,-2.198],[132.709,-2.299],[132.826,-2.242],[132.96,-2.292],[133.178,-2.194],[133.425,-2.23],[133.621,-2.232],[133.841,-2.096],[133.941,-2.134],[134,-2.245],[133.956,-2.467],[133.784,-2.49],[133.805,-2.647],[133.69,-2.616],[133.638,-2.532],[133.529,-2.642],[133.373,-2.62],[133.376,-2.509],[133.213,-2.412],[133.042,-2.496],[132.933,-2.643],[132.742,-2.801],[132.569,-2.688],[132.455,-2.707],[132.322,-2.66],[132.142,-2.664],[131.993,-2.828],[132.087,-2.96],[132.308,-2.935],[132.422,-2.99],[132.645,-3.19],[132.662,-3.316],[132.808,-3.261],[132.816,-3.443],[132.908,-3.547],[132.891,-3.645],[132.733,-3.683],[132.913,-4.085],[133.07,-4.055],[133.252,-4.072],[133.459,-3.857],[133.402,-3.698],[133.598,-3.529],[133.65,-3.395],[133.649,-3.159],[133.73,-3.028],[133.861,-3.055],[133.773,-3.175],[133.668,-3.228],[133.7,-3.412],[133.621,-3.477],[133.752,-3.646],[133.907,-3.699],[133.96,-3.862],[134.041,-3.782],[134.211,-3.971],[134.317,-4.045],[134.438,-3.918],[134.506,-4.044],[134.662,-3.982],[134.722,-4.195],[134.885,-4.252],[135.053,-4.052],[135.099,-3.954],[135.016,-3.721],[135.129,-3.689],[135.175,-3.573],[134.988,-3.582],[134.917,-3.439],[134.728,-3.361],[134.727,-3.317],[134.631,-3.051],[134.588,-2.802],[134.615,-2.793],[134.619,-2.791],[134.637,-2.758],[134.661,-2.756],[134.631,-2.474],[134.533,-2.449],[134.461,-2.549],[134.524,-2.792],[134.406,-2.768],[134.313,-2.507],[134.174,-2.353],[134.102,-2.052],[134.143,-1.993],[134.067,-1.674],[134.202,-1.55],[134.246,-1.313],[134.104,-1.131],[134.045,-0.928],[134.083,-0.814],[133.975,-0.722],[133.718,-0.752],[133.486,-0.741],[133.492,-0.759],[133.469,-0.774],[133.471,-0.928],[133.451,-0.95],[133.423,-1.145],[133.431,-1.177],[133.425,-1.184],[133.368,-1.225],[133.242,-1.185],[133.007,-1.357],[132.905,-1.397],[132.787,-1.573],[132.733,-1.877],[132.622,-1.876],[132.682,-2.081],[132.694,-2.087],[132.672,-2.088],[132.599,-2.198]]]]},"properties":{"code":"92","name":"Papua Barat","level":"province"}},
{"type":"Feature","geometry":{"type":"MultiPolygon","coordinates":[[[[132.672,-2.088],[132.694,-2.087],[132.682,-2.081],[132.622,-1.876],[132.733,-1.877],[132.787,-1.573],[132.905,-1.397],[133.007,-1.357],[133.242,-1.185],[133.368,-1.225],[133.425,-1.184],[133.431,-1.177],[133.423,-1.145],[133.451,-0.95],[133.471,-0.928],[133.469,-0.774],[133.492,-0.759],[133.486,-0.741],[133.386,-0.738],[133.236,-0.605],[132.682,-0.372],[132.42,-0.345],[132.266,-0.382],[132.095,-0.48],[131.847,-0.707],[131.583,-0.748],[131.508,-0.73],[131.232,-0.816],[131.268,-0.921],[131.249,-1.083],[131.174,-1.223],[131.051,-1.255],[130.997,-1.457],[131.168,-1.464],[131.216,-1.523],[131.334,-1.431],[131.5,-1.469],[131.718,-1.425],[131.71,-1.577],[131.857,-1.566],[131.974,-1.973],[132.04,-2.073],[132.194,-2.164],[132.317,-2.284],[132.52,-2.197],[132.599,-2.198],[132.672,-2.088]],[[131.397,-0.933],[131.382,-0.907],[131.386,-0.904],[131.45,-0.912],[131.458,-0.944],[131.435,-0.97],[131.397,-0.933]]],[[[130.352,-1.672],[130.257,-1.73],[130.057,-1.725],[129.719,-1.88],[129.86,-1.975],[130.125,-2.06],[130.266,-2.054],[130.386,-1.945],[130.444,-1.831],[130.352,-1.672]]],[[[130.902,-0.89],[130.647,-0.954],[130.718,-1.077],[130.762,-1.255],[130.858,-1.345],[130.961,-1.36],[131.044,-1.241],[131.078,-1.016],[131.031,-0.912],[130.902,-0.89]]],[[[130.806,-0.753],[130.637,-0.791],[130.611,-0.912],[130.801,-0.86],[130.806,-0.753]]],[[[130.814,-0.007],[130.634,-0.063],[130.296,-0.093],[130.527,-0.246],[130.679,-0.292],[130.75,-0.443],[130.936,-0.382],[130.919,-0.306],[130.853,-0.31],[130.827,-0.288],[130.741,-0.275],[130.699,-0.078],[130.868,-0.235],[130.92,-0.3],[130.942,-0.342],[131.102,-0.322],[131.242,-0.381],[131.318,-0.198],[131.133,-0.071],[130.967,-0.062],[130.814,-0.007]]]]},"properties":{"code":"96","name":"Papua Barat Daya","level":"province"}},
{"type":"Feature","geometry":{"type":"Polygon","coordinates":[[[140.974,-3.967],[140.89,-3.961],[140.61,-4.062],[140.707,-3.909],[140.688,-3.793],[140.407,-3.733],[140.273,-3.67],[140.005,-3.702],[139.968,-3.613],[139.703,-3.543],[139.704,-3.637],[139.593,-3.705],[139.518,-3.657],[139.477,-3.462],[139.34,-3.484],[139.143,-3.428],[139.141,-3.36],[138.919,-3.279],[138.749,-3.175],[138.598,-3.333],[138.352,-3.239],[138.291,-3.174],[138.185,-3.207],[138.185,-3.206],[138.235,-3.153],[138.235,-3.152],[138.181,-3.113],[138.176,-3.11],[138.075,-3.131],[138.115,-3.402],[138.271,-3.49],[138.255,-3.62],[138.343,-3.726],[138.153,-3.911],[138.001,-3.897],[137.926,-4.19],[137.736,-4.121],[137.725,-4.216],[137.971,-4.222],[137.933,-4.425],[137.831,-4.524],[137.83,-4.538],[137.863,-4.56],[137.941,-4.603],[138.03,-4.612],[138.076,-4.567],[138.092,-4.571],[138.133,-4.589],[138.154,-4.676],[138.326,-4.668],[138.401,-4.812],[138.571,-4.793],[138.603,-4.724],[138.854,-4.702],[138.933,-4.832],[139.049,-4.865],[139.078,-4.986],[139.498,-5.002],[139.667,-5.063],[139.987,-5.057],[140.11,-5.029],[140.112,-5.055],[140.238,-5.047],[140.298,-5.156],[140.435,-5.228],[141.001,-5.344],[141.001,-4.02],[140.974,-3.967]]]},"properties":{"code":"95","name":"Papua Pegunungan","level":"province"}},
{"type":"Feature","geometry":{"type":"MultiPolygon","coordinates":[[[[140.112,-5.055],[140.11,-5.029],[139.987,-5.057],[139.667,-5.063],[139.498,-5.002],[139.078,-4.986],[139.049,-4.865],[138.933,-4.832],[138.854,-4.702],[138.603,-4.724],[138.571,-4.793],[138.401,-4.812],[138.326,-4.668],[138.154,-4.676],[138.133,-4.589],[138.092,-4.571],[138.076,-4.567],[138.03,-4.612],[137.941,-4.603],[137.828,-4.597],[137.784,-4.684],[137.807,-4.699],[137.814,-4.703],[137.829,-4.712],[137.894,-4.761],[137.896,-4.775],[137.85,-4.932],[137.745,-5.138],[137.705,-5.152],[137.704,-5.154],[137.726,-5.333],[137.863,-5.35],[138.009,-5.506],[138.065,-5.722],[138.166,-5.814],[138.277,-5.841],[138.285,-5.943],[138.396,-6.17],[138.428,-6.359],[138.68,-6.605],[138.804,-6.674],[138.832,-6.782],[138.714,-6.902],[138.564,-6.934],[138.706,-7.075],[138.673,-7.22],[138.867,-7.317],[138.964,-7.519],[139.1,-7.54],[139.108,-7.599],[139.066,-7.634],[139.017,-7.756],[139.018,-7.853],[138.912,-7.922],[138.917,-8.084],[138.839,-8.107],[138.911,-8.267],[139.082,-8.137],[139.223,-8.095],[139.34,-8.206],[139.457,-8.193],[139.713,-8.097],[139.95,-8.102],[139.998,-8.204],[140.501,-8.614],[140.62,-8.818],[140.889,-9.083],[141.02,-9.126],[141.02,-6.892],[140.87,-6.793],[140.856,-6.643],[141,-6.322],[141.001,-5.344],[140.435,-5.228],[140.298,-5.156],[140.238,-5.047],[140.112,-5.055]]],[[[138.821,-8.144],[138.679,-8.17],[138.578,-8.358],[138.903,-8.383],[138.821,-8.144]]],[[[138.675,-7.367],[138.316,-7.429],[138.048,-7.602],[137.866,-7.854],[137.698,-8.181],[137.641,-8.419],[137.87,-8.372],[138.301,-8.392],[138.469,-8.35],[138.615,-8.249],[138.68,-8.149],[138.798,-8.138],[138.889,-8.036],[138.892,-7.914],[138.995,-7.849],[138.995,-7.746],[139.042,-7.626],[139.088,-7.574],[138.941,-7.546],[138.827,-7.402],[138.675,-7.367]]]]},"properties":{"code":"93","name":"Papua Selatan","level":"province"}},
{"type":"Feature","geometry":{"type":"Polygon","coordinates":[[[138.165,-2.979],[138.155,-2.978],[138.124,-2.978],[138.102,-3],[138.144,-3.046],[138.125,-3.027],[138.054,-2.984],[138.026,-3.016],[137.9,-3.015],[137.908,-3.051],[137.882,-3.083],[137.622,-3.04],[137.444,-3.107],[137.348,-3.09],[137.161,-3.132],[137.041,-3.204],[136.903,-3.158],[136.888,-3.262],[136.957,-3.331],[136.899,-3.407],[136.851,-3.261],[136.851,-3.258],[136.867,-3.246],[136.77,-3.251],[136.727,-3.238],[136.723,-3.238],[136.567,-3.254],[136.463,-3.062],[136.266,-2.887],[136.265,-2.887],[136.243,-2.861],[136.247,-2.842],[136.144,-2.797],[136.143,-2.773],[136.048,-2.72],[135.827,-3.014],[135.7,-3.151],[135.596,-3.194],[135.503,-3.357],[135.342,-3.397],[135.001,-3.336],[134.862,-3.251],[134.811,-3.038],[134.686,-2.967],[134.661,-2.756],[134.637,-2.758],[134.619,-2.791],[134.615,-2.793],[134.588,-2.802],[134.631,-3.051],[134.727,-3.317],[134.728,-3.361],[134.917,-3.439],[134.988,-3.582],[135.175,-3.573],[135.129,-3.689],[135.016,-3.721],[135.099,-3.954],[135.053,-4.052],[134.885,-4.252],[135.202,-4.465],[135.402,-4.427],[135.719,-4.497],[135.926,-4.492],[136.11,-4.621],[136.297,-4.675],[136.831,-4.914],[137.212,-4.977],[137.42,-5.124],[137.678,-5.218],[137.704,-5.154],[137.705,-5.152],[137.745,-5.138],[137.85,-4.932],[137.896,-4.775],[137.894,-4.761],[137.829,-4.712],[137.814,-4.703],[137.807,-4.699],[137.784,-4.684],[137.828,-4.597],[137.863,-4.56],[137.83,-4.538],[137.831,-4.524],[137.933,-4.425],[137.971,-4.222],[137.725,-4.216],[137.736,-4.121],[137.926,-4.19],[138.001,-3.897],[138.153,-3.911],[138.343,-3.726],[138.255,-3.62],[138.271,-3.49],[138.115,-3.402],[138.075,-3.131],[138.176,-3.11],[138.177,-3.11],[138.17,-2.986],[138.165,-2.979]]]},"properties":{"code":"94","name":"Papua Tengah","level":"province"}},
{"type":"Feature","geometry":{"type":"MultiPolygon","coordinates":[[[[101.845,-0.984],[101.886,-0.963],[101.894,-0.959],[101.962,-0.917],[101.987,-0.881],[101.992,-0.88],[102.013,-0.878],[102.017,-0.88],[102.056,-0.896],[102.203,-0.947],[102.289,-0.915],[102.473,-1.086],[102.642,-1.128],[102.928,-0.866],[103.004,-0.755],[103.112,-0.747],[103.353,-0.799],[103.437,-0.778],[103.456,-0.506],[103.544,-0.504],[103.591,-0.391],[103.786,-0.342],[103.709,-0.256],[103.531,-0.224],[103.469,-0.12],[103.685,-0.028],[103.813,-0.007],[103.71,0.3],[103.421,0.517],[103.327,0.545],[103.196,0.475],[103.096,0.495],[102.895,0.728],[102.677,0.756],[102.572,0.739],[102.419,0.802],[102.227,0.999],[102.209,1.189],[102.149,1.379],[102.004,1.459],[101.752,1.664],[101.562,1.637],[101.402,1.704],[101.357,1.779],[101.303,2.042],[101.076,2.215],[101.046,2.292],[100.775,2.284],[100.763,2.086],[100.559,2.161],[100.44,2.259],[100.299,2.443],[100.373,2.224],[100.324,2.061],[100.289,1.799],[100.418,1.665],[100.434,1.52],[100.377,1.45],[100.053,1.38],[100.184,1.125],[100.12,0.91],[100.091,0.924],[100.144,0.898],[100.124,0.817],[100.158,0.799],[100.212,0.736],[100.273,0.727],[100.284,0.682],[100.198,0.628],[100.289,0.399],[100.42,0.424],[100.467,0.315],[100.701,0.248],[100.767,0.234],[100.773,0.251],[100.816,0.26],[100.833,0.237],[100.842,0.225],[100.842,0.151],[100.838,0.145],[100.843,-0.006],[100.736,-0.046],[100.842,-0.341],[101.038,-0.352],[101.065,-0.502],[101.305,-0.628],[101.506,-0.809],[101.648,-0.824],[101.699,-0.937],[101.743,-0.95],[101.803,-0.964],[101.845,-0.984]]],[[[103.207,0.702],[103.149,0.665],[103.169,0.498],[103.285,0.53],[103.299,0.613],[103.207,0.702]]],[[[102.734,1.022],[102.591,1.002],[102.409,0.888],[102.568,0.768],[102.865,0.792],[102.992,0.691],[103.046,0.824],[102.88,0.952],[102.734,1.022]]],[[[102.535,1.13],[102.46,1.076],[102.5,0.945],[102.614,1.047],[102.535,1.13]]],[[[102.771,1.159],[102.743,1.04],[103.071,0.832],[103.153,0.895],[103,1.075],[102.771,1.159]]],[[[102.272,1.419],[102.206,1.277],[102.276,1.006],[102.386,0.913],[102.485,1.238],[102.272,1.419]]],[[[102.044,1.607],[102.081,1.485],[102.293,1.43],[102.505,1.252],[102.464,1.516],[102.044,1.607]]],[[[101.668,2.118],[101.517,2.028],[101.406,2.021],[101.383,1.91],[101.458,1.725],[101.614,1.688],[101.732,1.764],[101.782,1.967],[101.668,2.118]]]]},"properties":{"code":"14","name":"Riau","level":"province"}},
{"type":"Feature","geometry":{"type":"Polygon","coordinates":[[[119.573,-0.88],[119.461,-1.074],[119.341,-1.168],[119.333,-1.349],[119.288,-1.45],[119.326,-1.59],[119.281,-1.687],[119.363,-1.859],[119.33,-1.963],[119.223,-2.013],[119.122,-2.319],[119.124,-2.482],[118.912,-2.667],[118.818,-2.62],[118.76,-2.765],[118.769,-2.867],[118.886,-2.891],[118.829,-3.17],[118.846,-3.379],[118.938,-3.57],[119.065,-3.503],[119.235,-3.485],[119.305,-3.425],[119.475,-3.501],[119.432,-3.262],[119.371,-3.201],[119.374,-3.199],[119.486,-3.189],[119.536,-3.139],[119.606,-3.118],[119.55,-2.898],[119.579,-2.837],[119.568,-2.798],[119.584,-2.751],[119.597,-2.745],[119.681,-2.756],[119.749,-2.71],[119.756,-2.637],[119.762,-2.572],[119.676,-2.27],[119.747,-2.221],[119.87,-2.019],[119.85,-2.016],[119.871,-1.939],[119.87,-1.782],[119.858,-1.775],[119.671,-1.545],[119.697,-1.451],[119.546,-1.437],[119.427,-1.348],[119.581,-1.162],[119.573,-0.88]]]},"properties":{"code":"76","name":"Sulawesi Barat","level":"province"}},
{"type":"Feature","geometry":{"type":"MultiPolygon","coordinates":[[[[121.001,-2.843],[120.996,-2.832],[121.002,-2.826],[121.031,-2.793],[121.033,-2.792],[121.088,-2.778],[121.153,-2.813],[121.392,-3.014],[121.426,-3.004],[121.434,-3.002],[121.462,-3.011],[121.516,-2.925],[121.651,-2.897],[121.688,-2.889],[121.688,-2.888],[121.686,-2.866],[121.784,-2.642],[121.673,-2.52],[121.57,-2.491],[121.456,-2.414],[121.199,-2.365],[121.085,-2.373],[121.105,-2.291],[121.103,-2.28],[121.049,-2.265],[121.044,-2.251],[120.994,-2.275],[120.855,-2.222],[120.783,-2.213],[120.687,-2.204],[120.548,-2.019],[120.399,-1.954],[120.313,-2.052],[120.175,-1.962],[119.995,-1.958],[119.994,-1.96],[119.929,-2.032],[119.91,-2.053],[119.884,-2.046],[119.87,-2.019],[119.747,-2.221],[119.676,-2.27],[119.762,-2.572],[119.756,-2.637],[119.749,-2.71],[119.681,-2.756],[119.597,-2.745],[119.584,-2.751],[119.568,-2.798],[119.579,-2.837],[119.55,-2.898],[119.606,-3.118],[119.536,-3.139],[119.486,-3.189],[119.374,-3.199],[119.371,-3.201],[119.432,-3.262],[119.475,-3.501],[119.511,-3.596],[119.453,-3.713],[119.611,-3.984],[119.637,-4.319],[119.594,-4.57],[119.482,-4.751],[119.525,-4.924],[119.479,-5.06],[119.386,-5.158],[119.362,-5.416],[119.432,-5.511],[119.785,-5.702],[119.932,-5.546],[120.13,-5.588],[120.451,-5.477],[120.271,-5.142],[120.306,-4.868],[120.383,-4.838],[120.399,-4.606],[120.347,-4.426],[120.381,-4.172],[120.33,-4.096],[120.337,-3.939],[120.441,-3.739],[120.379,-3.5],[120.408,-3.409],[120.382,-3.202],[120.256,-3.161],[120.257,-2.946],[120.538,-2.756],[120.572,-2.686],[120.816,-2.619],[121.079,-2.697],[121.048,-2.778],[121.033,-2.768],[121.017,-2.809],[120.975,-2.809],[121.01,-2.866],[121.001,-2.843]]],[[[120.495,-5.768],[120.445,-5.96],[120.446,-6.267],[120.524,-6.223],[120.568,-6.056],[120.495,-5.768]]]]},"properties":{"code":"73","name":"Sulawesi Selatan","level":"province"}},
{"type":"Feature","geometry":{"type":"MultiPolygon","coordinates":[[[[121.198,0.641],[121.162,0.677],[121.219,0.791],[121.299,0.794],[121.347,0.795],[121.359,0.8],[121.363,0.802],[121.358,0.819],[121.35,0.848],[121.355,0.852],[121.426,0.845],[121.489,0.84],[121.523,0.85],[121.532,0.853],[121.542,0.879],[121.814,0.951],[121.955,0.907],[122.039,0.962],[122.018,0.956],[122.019,0.957],[122.058,0.994],[122.081,1.001],[122.153,1.025],[122.193,1.038],[122.109,1.068],[121.984,1.022],[121.927,1.103],[121.741,1.061],[121.558,1.062],[121.337,1.262],[121.255,1.23],[121.101,1.316],[120.942,1.35],[120.822,1.293],[120.777,1.107],[120.809,1.028],[120.635,0.939],[120.592,0.765],[120.398,0.792],[120.247,0.957],[120.233,0.794],[120.038,0.718],[120.045,0.513],[119.901,0.479],[119.849,0.351],[119.903,0.222],[119.771,0.214],[119.878,0.079],[119.882,-0.024],[119.775,-0.111],[119.818,-0.198],[119.751,-0.368],[119.759,-0.492],[119.883,-0.822],[119.838,-0.88],[119.728,-0.646],[119.573,-0.88],[119.581,-1.162],[119.427,-1.348],[119.546,-1.437],[119.697,-1.451],[119.671,-1.545],[119.858,-1.775],[119.87,-1.782],[119.871,-1.939],[119.85,-2.016],[119.87,-2.019],[119.884,-2.046],[119.91,-2.053],[119.929,-2.032],[119.994,-1.96],[119.995,-1.958],[120.175,-1.962],[120.313,-2.052],[120.399,-1.954],[120.548,-2.019],[120.687,-2.204],[120.783,-2.213],[120.855,-2.222],[120.994,-2.275],[121.044,-2.251],[121.049,-2.265],[121.103,-2.28],[121.105,-2.291],[121.085,-2.373],[121.199,-2.365],[121.456,-2.414],[121.57,-2.491],[121.673,-2.52],[121.784,-2.642],[121.686,-2.866],[121.688,-2.888],[121.688,-2.889],[121.67,-2.9],[121.755,-2.925],[121.834,-2.973],[121.862,-2.969],[121.885,-3.011],[122.066,-3.089],[122.151,-3.039],[122.164,-3.048],[122.257,-3.14],[122.315,-3.172],[122.296,-3.226],[122.372,-3.142],[122.25,-3.024],[122.315,-2.91],[122.086,-2.789],[122.011,-2.72],[121.968,-2.529],[121.723,-2.198],[121.551,-2.168],[121.535,-2.046],[121.313,-1.93],[121.296,-1.857],[121.457,-1.811],[121.554,-1.956],[121.743,-1.888],[121.862,-1.67],[122.03,-1.611],[122.219,-1.602],[122.391,-1.494],[122.633,-1.234],[122.797,-1.007],[122.803,-0.942],[123.151,-0.885],[123.144,-0.954],[123.347,-1.037],[123.458,-0.769],[123.393,-0.669],[123.263,-0.58],[123.058,-0.564],[122.989,-0.623],[122.807,-0.634],[122.726,-0.813],[122.617,-0.762],[122.526,-0.787],[122.202,-0.788],[122.11,-0.956],[121.947,-0.997],[121.771,-0.972],[121.589,-0.866],[121.48,-0.9],[121.222,-1.203],[121.1,-1.438],[120.862,-1.413],[120.805,-1.351],[120.675,-1.414],[120.571,-1.256],[120.594,-1.168],[120.51,-0.999],[120.406,-0.923],[120.31,-0.966],[120.133,-0.774],[120.059,-0.632],[120.073,-0.442],[120.008,-0.285],[120.035,-0.065],[120.096,-0.032],[120.135,0.192],[120.303,0.418],[120.507,0.513],[120.688,0.513],[120.898,0.396],[121.078,0.398],[121.258,0.491],[121.352,0.493],[121.198,0.641]]],[[[123.532,-1.478],[123.479,-1.547],[123.49,-1.715],[123.613,-1.698],[123.532,-1.478]]],[[[123.171,-1.149],[122.826,-1.285],[122.785,-1.463],[122.914,-1.595],[123.017,-1.492],[123.121,-1.294],[123.185,-1.514],[123.296,-1.41],[123.412,-1.531],[123.513,-1.454],[123.556,-1.278],[123.375,-1.221],[123.242,-1.401],[123.183,-1.32],[123.248,-1.229],[123.171,-1.149]]]]},"properties":{"code":"72","name":"Sulawesi Tengah","level":"province"}},
{"type":"Feature","geometry":{"type":"MultiPolygon","coordinates":[[[[121.462,-3.011],[121.434,-3.002],[121.426,-3.004],[121.392,-3.014],[121.153,-2.813],[121.088,-2.778],[121.033,-2.792],[121.031,-2.793],[121.002,-2.826],[120.996,-2.832],[121.001,-2.843],[121.064,-2.878],[121.09,-2.945],[121.043,-3.045],[121.069,-3.204],[120.972,-3.265],[120.866,-3.429],[120.945,-3.62],[121.084,-3.715],[121.169,-3.824],[121.247,-3.83],[121.349,-3.991],[121.609,-4.067],[121.617,-4.151],[121.527,-4.244],[121.525,-4.402],[121.467,-4.684],[121.684,-4.851],[121.816,-4.834],[121.984,-4.901],[122.092,-4.826],[122.03,-4.656],[122.104,-4.531],[122.218,-4.48],[122.504,-4.456],[122.585,-4.396],[122.744,-4.51],[122.901,-4.378],[122.889,-4.127],[122.677,-4.158],[122.666,-3.897],[122.523,-3.893],[122.443,-3.749],[122.342,-3.745],[122.196,-3.61],[122.283,-3.549],[122.315,-3.425],[122.296,-3.226],[122.315,-3.172],[122.257,-3.14],[122.164,-3.048],[122.151,-3.039],[122.066,-3.089],[121.885,-3.011],[121.862,-2.969],[121.834,-2.973],[121.755,-2.925],[121.67,-2.9],[121.651,-2.897],[121.516,-2.925],[121.462,-3.011]]],[[[121.9,-5.065],[121.841,-5.108],[121.794,-5.274],[121.963,-5.477],[122.075,-5.232],[121.968,-5.063],[121.9,-5.065]]],[[[122.671,-4.611],[122.467,-4.741],[122.374,-4.738],[122.32,-4.828],[122.39,-5.074],[122.307,-5.15],[122.279,-5.394],[122.513,-5.406],[122.64,-5.356],[122.577,-5.25],[122.628,-5.071],[122.761,-4.971],[122.729,-4.652],[122.671,-4.611]]],[[[123.075,-4.367],[122.95,-4.425],[122.867,-4.526],[122.828,-4.678],[122.856,-4.785],[122.733,-5.242],[122.557,-5.501],[122.644,-5.699],[122.802,-5.696],[122.898,-5.561],[122.872,-5.455],[123.131,-5.399],[123.221,-5.293],[123.034,-5.136],[122.952,-5.019],[122.994,-4.826],[123.101,-4.794],[123.209,-4.613],[123.075,-4.367]]],[[[123.023,-3.98],[122.949,-4.123],[122.991,-4.201],[123.136,-4.256],[123.248,-4.124],[123.189,-4.01],[123.023,-3.98]]]]},"properties":{"code":"74","name":"Sulawesi Tenggara","level":"province"}},
{"type":"Feature","geometry":{"type":"MultiPolygon","coordinates":[[[[123.494,0.369],[123.481,0.328],[123.479,0.322],[123.628,0.292],[123.993,0.375],[124.288,0.407],[124.513,0.473],[124.493,0.547],[124.716,0.896],[124.892,1.004],[125.024,1.143],[125.078,1.366],[125.245,1.515],[125.019,1.72],[124.806,1.576],[124.827,1.463],[124.676,1.394],[124.615,1.418],[124.515,1.3],[124.577,1.189],[124.416,1.196],[124.296,1.009],[124.203,0.99],[123.913,0.852],[123.753,0.831],[123.597,0.904],[123.417,0.891],[123.211,0.938],[123.119,0.924],[123.122,0.889],[123.271,0.803],[123.247,0.717],[123.533,0.577],[123.55,0.434],[123.494,0.369]]],[[[125.449,3.737],[125.398,3.673],[125.512,3.568],[125.481,3.482],[125.621,3.389],[125.676,3.429],[125.508,3.723],[125.449,3.737]]],[[[126.748,4.546],[126.68,4.337],[126.779,4.25],[126.911,4.27],[126.851,4.373],[126.855,4.49],[126.748,4.546]]]]},"properties":{"code":"71","name":"Sulawesi Utara","level":"province"}},
{"type":"Feature","geometry":{"type":"MultiPolygon","coordinates":[[[[101.188,-2.372],[101.216,-2.355],[101.246,-2.328],[101.29,-2.291],[101.293,-2.289],[101.261,-2.102],[101.138,-1.899],[101.132,-1.685],[101.266,-1.696],[101.324,-1.695],[101.332,-1.692],[101.373,-1.675],[101.395,-1.69],[101.418,-1.677],[101.438,-1.695],[101.477,-1.677],[101.489,-1.647],[101.523,-1.636],[101.635,-1.52],[101.722,-1.431],[101.675,-1.348],[101.727,-1.235],[101.817,-1.217],[101.891,-1.11],[101.892,-1.105],[101.888,-1.102],[101.871,-1.104],[101.859,-1.106],[101.829,-1.109],[101.824,-0.978],[101.803,-0.964],[101.743,-0.95],[101.699,-0.937],[101.648,-0.824],[101.506,-0.809],[101.305,-0.628],[101.065,-0.502],[101.038,-0.352],[100.842,-0.341],[100.736,-0.046],[100.843,-0.006],[100.838,0.145],[100.842,0.151],[100.842,0.225],[100.833,0.237],[100.816,0.26],[100.773,0.251],[100.767,0.234],[100.701,0.248],[100.467,0.315],[100.42,0.424],[100.289,0.399],[100.198,0.628],[100.284,0.682],[100.273,0.727],[100.212,0.736],[100.184,0.762],[100.112,0.778],[100.074,0.789],[99.944,0.883],[99.884,0.903],[99.872,0.907],[99.837,0.885],[99.831,0.696],[99.909,0.626],[99.958,0.563],[99.951,0.525],[99.95,0.525],[99.907,0.472],[99.718,0.451],[99.643,0.545],[99.41,0.484],[99.317,0.334],[99.269,0.343],[99.244,0.336],[99.202,0.316],[99.194,0.31],[99.196,0.272],[99.182,0.251],[99.353,0.232],[99.398,0.151],[99.618,0.066],[99.738,-0.028],[99.817,-0.296],[100.051,-0.516],[100.125,-0.644],[100.325,-0.85],[100.38,-1.178],[100.544,-1.311],[100.593,-1.394],[100.644,-1.621],[100.865,-1.932],[100.88,-2.051],[100.823,-2.174],[100.89,-2.326],[101.022,-2.478],[101.188,-2.372]]],[[[100.229,-2.785],[100.176,-2.803],[100.232,-3.057],[100.361,-3.165],[100.458,-3.052],[100.355,-2.901],[100.229,-2.785]]],[[[99.993,-2.503],[100.018,-2.811],[100.218,-2.776],[100.173,-2.648],[99.993,-2.503]]],[[[99.592,-2.031],[99.528,-2.153],[99.615,-2.293],[99.738,-2.345],[99.702,-2.085],[99.592,-2.031]]],[[[98.911,-0.926],[98.663,-0.98],[98.603,-1.226],[98.804,-1.518],[98.878,-1.679],[99.107,-1.812],[99.241,-1.797],[99.302,-1.72],[99.194,-1.567],[99.002,-1.116],[98.935,-1.061],[98.911,-0.926]]]]},"properties":{"code":"13","name":"Sumatera Barat","level":"province"}},
{"type":"Feature","geometry":{"type":"Polygon","coordinates":[[[102.065,-2.768],[102.222,-2.928],[102.254,-3.036],[102.455,-3.073],[102.487,-3.11],[102.494,-3.268],[102.638,-3.338],[102.751,-3.309],[102.896,-3.376],[102.988,-3.368],[102.995,-3.525],[102.771,-3.708],[102.67,-3.826],[102.817,-3.979],[102.912,-3.97],[102.919,-4.095],[103.059,-4.195],[103.073,-4.262],[103.307,-4.258],[103.425,-4.401],[103.408,-4.504],[103.487,-4.578],[103.62,-4.533],[103.63,-4.558],[103.702,-4.664],[103.669,-4.729],[103.701,-4.723],[103.79,-4.779],[103.808,-4.795],[103.826,-4.811],[103.839,-4.823],[103.858,-4.84],[103.865,-4.851],[103.846,-4.919],[103.936,-4.885],[104.144,-4.924],[104.285,-4.856],[104.335,-4.872],[104.295,-4.647],[104.311,-4.513],[104.384,-4.348],[104.621,-4.214],[104.706,-4.259],[104.873,-4.236],[105.014,-4.175],[105.139,-3.936],[105.277,-3.877],[105.305,-3.791],[105.306,-3.789],[105.327,-3.727],[105.33,-3.728],[105.345,-3.741],[105.358,-3.796],[105.416,-3.777],[105.631,-4.004],[105.702,-4.136],[105.745,-4.144],[105.773,-4.114],[105.775,-4.111],[105.777,-4.112],[105.814,-4.14],[105.961,-3.828],[105.831,-3.711],[105.826,-3.594],[105.93,-3.36],[106.097,-3.24],[106.043,-2.989],[105.847,-2.951],[105.782,-2.857],[105.78,-2.683],[105.692,-2.684],[105.604,-2.553],[105.622,-2.392],[105.297,-2.374],[105.21,-2.326],[105.109,-2.383],[105.007,-2.333],[104.839,-2.338],[104.902,-2.192],[104.828,-2.004],[104.611,-2.006],[104.472,-1.913],[104.498,-1.68],[104.493,-1.674],[104.465,-1.643],[104.464,-1.642],[104.461,-1.641],[104.42,-1.632],[103.873,-1.789],[103.85,-1.817],[103.696,-1.834],[103.604,-1.857],[103.521,-1.907],[103.5,-1.982],[103.525,-2.073],[103.455,-2.186],[103.454,-2.36],[103.301,-2.222],[103.119,-2.354],[102.868,-2.315],[102.879,-2.424],[102.787,-2.547],[102.623,-2.62],[102.604,-2.661],[102.6,-2.664],[102.545,-2.676],[102.536,-2.677],[102.507,-2.703],[102.406,-2.689],[102.362,-2.656],[102.31,-2.649],[102.271,-2.624],[102.146,-2.719],[102.131,-2.727],[102.099,-2.762],[102.095,-2.767],[102.082,-2.767],[102.065,-2.768]]]},"properties":{"code":"16","name":"Sumatera Selatan","level":"province"}},
{"type":"Feature","geometry":{"type":"MultiPolygon","coordinates":[[[[98.127,2.17],[98.285,2.044],[98.462,1.989],[98.681,1.738],[98.742,1.783],[98.84,1.628],[98.764,1.527],[98.784,1.424],[98.911,1.123],[99.108,0.575],[99.167,0.228],[99.18,0.247],[99.182,0.251],[99.196,0.272],[99.194,0.31],[99.202,0.316],[99.244,0.336],[99.269,0.343],[99.317,0.334],[99.41,0.484],[99.643,0.545],[99.718,0.451],[99.907,0.472],[99.95,0.525],[99.951,0.525],[99.958,0.563],[99.909,0.626],[99.831,0.696],[99.837,0.885],[99.872,0.907],[99.884,0.903],[99.944,0.883],[100.074,0.789],[100.112,0.778],[100.184,0.762],[100.158,0.799],[100.124,0.817],[100.144,0.898],[100.091,0.924],[100.12,0.91],[100.184,1.125],[100.053,1.38],[100.377,1.45],[100.434,1.52],[100.418,1.665],[100.289,1.799],[100.324,2.061],[100.373,2.224],[100.299,2.443],[100.321,2.55],[100.234,2.642],[99.985,2.758],[99.979,2.945],[99.858,3.035],[99.757,3.169],[99.558,3.238],[99.487,3.345],[98.955,3.681],[98.706,3.772],[98.692,3.889],[98.56,3.939],[98.541,4.012],[98.315,4.07],[98.249,4.13],[98.253,4.29],[98.24,4.289],[98.225,4.288],[98.204,4.298],[98.155,4.289],[98.07,4.247],[98.008,3.902],[97.801,3.723],[97.907,3.555],[97.949,3.39],[97.905,3.257],[97.981,3.079],[97.943,2.903],[98.055,2.819],[98.104,2.682],[98.082,2.511],[98.197,2.312],[98.127,2.17]]],[[[98.418,-0.242],[98.376,-0.461],[98.506,-0.494],[98.522,-0.36],[98.418,-0.242]]],[[[98.612,0.181],[98.536,0.102],[98.749,0.071],[98.798,0.171],[98.612,0.181]]],[[[97.351,1.541],[97.275,1.419],[97.11,1.401],[97.262,1.243],[97.377,1.061],[97.406,0.939],[97.485,0.939],[97.602,0.838],[97.744,0.554],[97.9,0.626],[97.894,0.858],[97.947,0.957],[97.8,1.151],[97.676,1.22],[97.484,1.478],[97.351,1.541]]]]},"properties":{"code":"12","name":"Sumatera Utara","level":"province"}}
]}